{
  "norad_id": 57920,
  "name": "STARLINK-30485",
  "history": [
    {
      "epoch": "2026-03-28T18:09:48.737376Z",
      "apogee_km": 486.65858363327425,
      "perigee_km": 484.43529913098064,
      "latitude_deg": -9.69843950083656e-06,
      "longitude_deg": 118.9382313821931,
      "height_km": 485.5006167275186,
      "semi_major_axis_km": 6863.683941382127,
      "eccentricity": 0.00016196,
      "inclination_deg": 43.0041,
      "raan_deg": 217.564,
      "arg_perigee_deg": 260.8749,
      "mean_anomaly_deg": 99.1919,
      "mean_motion_rev_day": 15.26746196
    }
  ]
}